{
  "type": "FeatureCollection",
  "features": [
    {
      "type": "Feature",
      "properties": {
        "norad_id": 30443,
        "name": "FENGYUN 1C DEB",
        "group": "fengyun-1c-debris",
        "lat": 55.708783588294175,
        "lon": 117.26109112165717,
        "alt_km": 774.10175770142,
        "timestamp": "2025-12-03T04:52:29.913600+00:00",
        "meta_object_name": "FENGYUN 1C DEB",
        "meta_object_id": "1999-025AFE",
        "meta_epoch": "2025-12-02T19:56:48.787008",
        "meta_mean_motion": 14.3655413,
        "meta_eccentricity": 0.0028631,
        "meta_inclination": 98.8474,
        "meta_ra_of_asc_node": 283.6759,
        "meta_arg_of_pericenter": 6.2925,
        "meta_mean_anomaly": 353.8615,
        "meta_ephemeris_type": 0,
        "meta_classification_type": "U",
        "meta_norad_cat_id": 30443,
        "meta_element_set_no": 999,
        "meta_rev_at_epoch": 97291,
        "meta_bstar": 0.0033536,
        "meta_mean_motion_dot": 9.866e-05,
        "meta_mean_motion_ddot": 0,
        "tle_line1": "1 30443U 99025AFE 25336.83112022  .00009866  00000+0  33536-2 0  9997",
        "tle_line2": "2 30443  98.8474 283.6759 0028631   6.2925 353.8615 14.36554130972911"
      },
      "geometry": {
        "type": "Point",
        "coordinates": [
          117.26109112165717,
          55.708783588294175
        ]
      }
    },
    {
      "type": "Feature",
      "properties": {
        "norad_id": 30445,
        "name": "FENGYUN 1C DEB",
        "group": "fengyun-1c-debris",
        "lat": 52.17595434758467,
        "lon": -83.43614621370384,
        "alt_km": 649.9096699254351,
        "timestamp": "2025-12-03T04:52:29.913614+00:00",
        "meta_object_name": "FENGYUN 1C DEB",
        "meta_object_id": "1999-025AFG",
        "meta_epoch": "2025-12-02T20:20:50.042688",
        "meta_mean_motion": 14.48646565,
        "meta_eccentricity": 0.0106513,
        "meta_inclination": 98.8332,
        "meta_ra_of_asc_node": 287.7468,
        "meta_arg_of_pericenter": 47.8116,
        "meta_mean_anomaly": 313.2059,
        "meta_ephemeris_type": 0,
        "meta_classification_type": "U",
        "meta_norad_cat_id": 30445,
        "meta_element_set_no": 999,
        "meta_rev_at_epoch": 99041,
        "meta_bstar": 0.00099173,
        "meta_mean_motion_dot": 3.96e-05,
        "meta_mean_motion_ddot": 0,
        "tle_line1": "1 30445U 99025AFG 25336.84780142  .00003960  00000+0  99173-3 0  9993",
        "tle_line2": "2 30445  98.8332 287.7468 0106513  47.8116 313.2059 14.48646565990411"
      },
      "geometry": {
        "type": "Point",
        "coordinates": [
          -83.43614621370384,
          52.17595434758467
        ]
      }
    },
    {
      "type": "Feature",
      "properties": {
        "norad_id": 30446,
        "name": "FENGYUN 1C DEB",
        "group": "fengyun-1c-debris",
        "lat": -27.887943613961397,
        "lon": 64.18047326307781,
        "alt_km": 772.2594621530252,
        "timestamp": "2025-12-03T04:52:29.913625+00:00",
        "meta_object_name": "FENGYUN 1C DEB",
        "meta_object_id": "1999-025AFH",
        "meta_epoch": "2025-12-02T17:22:09.160032",
        "meta_mean_motion": 14.44517938,
        "meta_eccentricity": 0.0035615,
        "meta_inclination": 98.6155,
        "meta_ra_of_asc_node": 59.0928,
        "meta_arg_of_pericenter": 127.9201,
        "meta_mean_anomaly": 232.5218,
        "meta_ephemeris_type": 0,
        "meta_classification_type": "U",
        "meta_norad_cat_id": 30446,
        "meta_element_set_no": 999,
        "meta_rev_at_epoch": 98032,
        "meta_bstar": 0.0024055,
        "meta_mean_motion_dot": 8.338e-05,
        "meta_mean_motion_ddot": 0,
        "tle_line1": "1 30446U 99025AFH 25336.72371713  .00008338  00000+0  24055-2 0  9991",
        "tle_line2": "2 30446  98.6155  59.0928 0035615 127.9201 232.5218 14.44517938980329"
      },
      "geometry": {
        "type": "Point",
        "coordinates": [
          64.18047326307781,
          -27.887943613961397
        ]
      }
    },
    {
      "type": "Feature",
      "properties": {
        "norad_id": 30447,
        "name": "FENGYUN 1C DEB",
        "group": "fengyun-1c-debris",
        "lat": 45.463545882349884,
        "lon": -171.20432942273015,
        "alt_km": 660.1454210299062,
        "timestamp": "2025-12-03T04:52:29.913637+00:00",
        "meta_object_name": "FENGYUN 1C DEB",
        "meta_object_id": "1999-025AFJ",
        "meta_epoch": "2025-12-02T13:57:11.942208",
        "meta_mean_motion": 14.5622401,
        "meta_eccentricity": 0.00596226,
        "meta_inclination": 98.9718,
        "meta_ra_of_asc_node": 197.3669,
        "meta_arg_of_pericenter": 60.6954,
        "meta_mean_anomaly": 328.1939,
        "meta_ephemeris_type": 0,
        "meta_classification_type": "U",
        "meta_norad_cat_id": 30447,
        "meta_element_set_no": 999,
        "meta_rev_at_epoch": 97948,
        "meta_bstar": 0.0029600447,
        "meta_mean_motion_dot": 0.00013376,
        "meta_mean_motion_ddot": 0,
        "tle_line1": "1 30447U 99025AFJ 25336.58138822  .00013376  00000+0  29600-2 0  9997",
        "tle_line2": "2 30447  98.9718 197.3669 0059622  60.6954 328.1939 14.56224010979484"
      },
      "geometry": {
        "type": "Point",
        "coordinates": [
          -171.20432942273015,
          45.463545882349884
        ]
      }
    },
    {
      "type": "Feature",
      "properties": {
        "norad_id": 30448,
        "name": "FENGYUN 1C DEB",
        "group": "fengyun-1c-debris",
        "lat": 38.91078912837192,
        "lon": -104.2073497048143,
        "alt_km": 773.9041473711886,
        "timestamp": "2025-12-03T04:52:29.913648+00:00",
        "meta_object_name": "FENGYUN 1C DEB",
        "meta_object_id": "1999-025AFK",
        "meta_epoch": "2025-12-02T18:45:32.514048",
        "meta_mean_motion": 14.34954925,
        "meta_eccentricity": 0.0017347,
        "meta_inclination": 98.8323,
        "meta_ra_of_asc_node": 68.1515,
        "meta_arg_of_pericenter": 43.7689,
        "meta_mean_anomaly": 80.3264,
        "meta_ephemeris_type": 0,
        "meta_classification_type": "U",
        "meta_norad_cat_id": 30448,
        "meta_element_set_no": 999,
        "meta_rev_at_epoch": 97195,
        "meta_bstar": 0.0025399,
        "meta_mean_motion_dot": 7.2e-05,
        "meta_mean_motion_ddot": 0,
        "tle_line1": "1 30448U 99025AFK 25336.78162632  .00007200  00000+0  25399-2 0  9996",
        "tle_line2": "2 30448  98.8323  68.1515 0017347  43.7689  80.3264 14.34954925971959"
      },
      "geometry": {
        "type": "Point",
        "coordinates": [
          -104.2073497048143,
          38.91078912837192
        ]
      }
    },
    {
      "type": "Feature",
      "properties": {
        "norad_id": 30450,
        "name": "FENGYUN 1C DEB",
        "group": "fengyun-1c-debris",
        "lat": 69.13268097086689,
        "lon": -30.434775282906894,
        "alt_km": 811.349755411442,
        "timestamp": "2025-12-03T04:52:29.913659+00:00",
        "meta_object_name": "FENGYUN 1C DEB",
        "meta_object_id": "1999-025AFM",
        "meta_epoch": "2025-12-02T00:52:07.891680",
        "meta_mean_motion": 14.61648153,
        "meta_eccentricity": 0.01888556,
        "meta_inclination": 98.0809,
        "meta_ra_of_asc_node": 350.3061,
        "meta_arg_of_pericenter": 242.0364,
        "meta_mean_anomaly": 172.5421,
        "meta_ephemeris_type": 0,
        "meta_classification_type": "U",
        "meta_norad_cat_id": 30450,
        "meta_element_set_no": 999,
        "meta_rev_at_epoch": 99386,
        "meta_bstar": 0.00075950337,
        "meta_mean_motion_dot": 4.819e-05,
        "meta_mean_motion_ddot": 0,
        "tle_line1": "1 30450U 99025AFM 25336.03620245  .00004819  00000+0  75950-3 0  9998",
        "tle_line2": "2 30450  98.0809 350.3061 0188855 242.0364 172.5421 14.61648153993868"
      },
      "geometry": {
        "type": "Point",
        "coordinates": [
          -30.434775282906894,
          69.13268097086689
        ]
      }
    },
    {
      "type": "Feature",
      "properties": {
        "norad_id": 30452,
        "name": "FENGYUN 1C DEB",
        "group": "fengyun-1c-debris",
        "lat": 14.200002355099384,
        "lon": -62.97839212712581,
        "alt_km": 696.1257095378796,
        "timestamp": "2025-12-03T04:52:29.913670+00:00",
        "meta_object_name": "FENGYUN 1C DEB",
        "meta_object_id": "1999-025AFP",
        "meta_epoch": "2025-12-02T08:40:44.529600",
        "meta_mean_motion": 14.63832139,
        "meta_eccentricity": 0.00499398,
        "meta_inclination": 99.3202,
        "meta_ra_of_asc_node": 113.6892,
        "meta_arg_of_pericenter": 282.6033,
        "meta_mean_anomaly": 131.3802,
        "meta_ephemeris_type": 0,
        "meta_classification_type": "U",
        "meta_norad_cat_id": 30452,
        "meta_element_set_no": 999,
        "meta_rev_at_epoch": 97955,
        "meta_bstar": 0.0047488632,
        "meta_mean_motion_dot": 0.00025275,
        "meta_mean_motion_ddot": 0,
        "tle_line1": "1 30452U 99025AFP 25336.36162650  .00025275  00000+0  47489-2 0  9991",
        "tle_line2": "2 30452  99.3202 113.6892 0049939 282.6033 131.3802 14.63832139979552"
      },
      "geometry": {
        "type": "Point",
        "coordinates": [
          -62.97839212712581,
          14.200002355099384
        ]
      }
    }
  ]
}